NORAD_CAT_ID,OBJECT_NAME,OBJECT_TYPE,EPOCH,MEAN_MOTION,ECCENTRICITY,INCLINATION,RA_OF_ASC_NODE,ARG_OF_PERICENTER,MEAN_ANOMALY,BSTAR,MEAN_MOTION_DOT,MEAN_MOTION_DDOT,TLE_LINE0,TLE_LINE1,TLE_LINE2,SEMIMAJOR_AXIS,PERIOD,APOGEE,PERIGEE,DECAYED
52857.0,STARLINK-4199,PAYLOAD,2024-03-26 03:26:01,15.08808752,0.0001378,53.2188,347.3527,107.765,252.3493,-0.00053019,-8.709e-05,0.0,0 STARLINK-4199,1 52857U 22062AD  24086.14307830 -.00008709  00000-0 -53019-3 0  9992,2 52857  53.2188 347.3527 0001378 107.7650 252.3493 15.08808752 98696,6917.976,95.44,540.794,538.888,0.0
52857.0,STARLINK-4199,PAYLOAD,2024-03-26 20:55:16,15.08836085,0.0001713,53.2189,344.0831,83.1839,276.9348,0.00041504,6.323e-05,0.0,0 STARLINK-4199,1 52857U 22062AD  24086.87171608  .00006323  00000-0  41504-3 0  9998,2 52857  53.2189 344.0831 0001713  83.1839 276.9348 15.08836085 98802,6917.892,95.438,540.942,538.572,0.0
52857.0,STARLINK-4199,PAYLOAD,2024-03-26 22:30:39,15.08840304,0.0001932,53.2183,343.7844,95.3054,264.8159,0.00045403,6.945e-05,0.0,0 STARLINK-4199,1 52857U 22062AD  24086.93795366  .00006945  00000-0  45403-3 0  9990,2 52857  53.2183 343.7844 0001932  95.3054 264.8159 15.08840304 98325,6917.879,95.438,541.081,538.408,0.0
52857.0,STARLINK-4199,PAYLOAD,2024-03-27 00:06:01,15.08855713,0.0001715,53.2185,343.4894,77.6083,282.5101,0.00069088,0.00010729,0.0,0 STARLINK-4199,1 52857U 22062AD  24087.00418793  .00010729  00000-0  69088-3 0  9995,2 52857  53.2185 343.4894 0001715  77.6083 282.5101 15.08855713 98822,6917.832,95.437,540.884,538.511,0.0
52857.0,STARLINK-4199,PAYLOAD,2024-03-27 09:38:20,15.08848242,0.000167,53.2182,341.7043,69.9082,290.209,0.00030823,4.622e-05,0.0,0 STARLINK-4199,1 52857U 22062AD  24087.40162866  .00004622  00000-0  30823-3 0  9996,2 52857  53.2182 341.7043 0001670  69.9082 290.2090 15.08848242 98887,6917.855,95.437,540.875,538.565,0.0
52857.0,STARLINK-4199,PAYLOAD,2024-03-27 22:21:26,15.08836922,0.0001777,53.2201,339.3264,87.6471,272.4725,0.00037477,5.681e-05,0.0,0 STARLINK-4199,1 52857U 22062AD  24087.93155952  .00005681  00000-0  37477-3 0  9990,2 52857  53.2201 339.3264 0001777  87.6471 272.4725 15.08836922 98478,6917.89,95.438,540.984,538.525,0.0
52857.0,STARLINK-4199,PAYLOAD,2024-03-27 23:56:49,15.08829236,0.0001282,53.2191,339.0283,88.7005,271.4134,0.00040345,6.137e-05,0.0,0 STARLINK-4199,1 52857U 22062AD  24087.99779891  .00006137  00000-0  40345-3 0  9995,2 52857  53.2191 339.0283 0001282  88.7005 271.4134 15.08829236 98978,6917.913,95.438,540.665,538.891,0.0
52857.0,STARLINK-4199,PAYLOAD,2024-03-28 22:12:12,15.08853544,0.0001602,53.2194,334.8699,96.3004,263.8171,-0.00016109,-2.852e-05,0.0,0 STARLINK-4199,1 52857U 22062AD  24088.92514252 -.00002852  00000-0 -16109-3 0  9990,2 52857  53.2194 334.8699 0001602  96.3004 263.8171 15.08853544 98622,6917.839,95.437,540.812,538.596,0.0
52857.0,STARLINK-4199,PAYLOAD,2024-03-29 01:22:58,15.08860977,0.000145,53.2185,334.2719,77.1518,282.9636,-5.7472e-05,-1.203e-05,0.0,0 STARLINK-4199,1 52857U 22062AD  24089.05762331 -.00001203  00000-0 -57472-4 0  9996,2 52857  53.2185 334.2719 0001450  77.1518 282.9636 15.08860977 99130,6917.816,95.436,540.684,538.678,0.0
52857.0,STARLINK-4199,PAYLOAD,2024-03-29 09:19:53,15.08860235,0.0001581,53.2186,332.7842,78.4723,281.6446,-7.1285e-05,-1.423e-05,0.0,0 STARLINK-4199,1 52857U 22062AD  24089.38881879 -.00001423  00000-0 -71285-4 0  9993,2 52857  53.2186 332.7842 0001581  78.4723 281.6446 15.08860235 98690,6917.819,95.436,540.777,538.59,0.0
52857.0,STARLINK-4199,PAYLOAD,2024-03-29 22:02:59,15.08876542,0.0001596,53.2209,330.4047,72.614,287.5027,-0.00045476,-7.526e-05,0.0,0 STARLINK-4199,1 52857U 22062AD  24089.91873861 -.00007526  00000-0 -45476-3 0  9996,2 52857  53.2209 330.4047 0001596  72.6140 287.5027 15.08876542 98770,6917.769,95.435,540.738,538.53,0.0
52857.0,STARLINK-4199,PAYLOAD,2024-03-30 01:13:45,15.08858842,0.0001306,53.2198,329.809,78.8073,281.3066,-8.8088e-05,-1.69e-05,0.0,0 STARLINK-4199,1 52857U 22062AD  24090.05121678 -.00001690  00000-0 -88088-4 0  9998,2 52857  53.2198 329.8090 0001306  78.8073 281.3066 15.08858842 99284,6917.823,95.436,540.591,538.784,0.0
52857.0,STARLINK-4199,PAYLOAD,2024-03-30 09:10:40,15.08859489,0.0001224,53.2187,328.3225,77.9447,282.1682,-0.00028189,-4.774e-05,0.0,0 STARLINK-4199,1 52857U 22062AD  24090.38241730 -.00004774  00000-0 -28189-3 0  9997,2 52857  53.2187 328.3225 0001224  77.9447 282.1682 15.08859489 98842,6917.821,95.436,540.533,538.839,0.0
52857.0,STARLINK-4199,PAYLOAD,2024-03-30 21:53:46,15.08843327,0.000124,53.2168,325.9461,98.1214,261.9919,-5.582e-05,-1.176e-05,0.0,0 STARLINK-4199,1 52857U 22062AD  24090.91234727 -.00001176  00000-0 -55820-4 0  9990,2 52857  53.2168 325.9461 0001240  98.1214 261.9919 15.08843327 99417,6917.87,95.437,540.593,538.877,0.0
52857.0,STARLINK-4199,PAYLOAD,2024-03-31 09:01:28,15.08848358,0.0001277,53.2177,323.8641,97.0545,263.0593,-7.3162e-06,-4.04e-06,0.0,0 STARLINK-4199,1 52857U 22062AD  24091.37602141 -.00000404  00000-0 -73162-5 0  9993,2 52857  53.2177 323.8641 0001277  97.0545 263.0593 15.08848358 98991,6917.855,95.437,540.603,538.836,0.0
52857.0,STARLINK-4199,PAYLOAD,2024-03-31 21:44:33,15.08845575,0.0001236,53.2176,321.4858,88.5575,271.5559,0.00013925,1.929e-05,0.0,0 STARLINK-4199,1 52857U 22062AD  24091.90593931  .00001929  00000-0  13925-3 0  9998,2 52857  53.2176 321.4858 0001236  88.5575 271.5559 15.08845575 99071,6917.863,95.437,540.583,538.873,0.0
52857.0,STARLINK-4199,PAYLOAD,2024-04-01 15:13:46,15.08856126,6.6e-05,53.2171,318.2151,84.7694,275.3374,0.00028655,4.278e-05,0.0,0 STARLINK-4199,1 52857U 22062AD  24092.63456404  .00004278  00000-0  28655-3 0  9998,2 52857  53.2171 318.2151 0000660  84.7694 275.3374 15.08856126 99189,6917.831,95.437,540.153,539.24,0.0
52857.0,STARLINK-4199,PAYLOAD,2024-04-01 21:35:21,15.08824426,0.0001372,53.2168,317.0254,90.1487,269.9662,-0.00014139,-2.536e-05,0.0,0 STARLINK-4199,1 52857U 22062AD  24092.89954879 -.00002536  00000-0 -14139-3 0  9994,2 52857  53.2168 317.0254 0001372  90.1487 269.9662 15.08824426 99714,6917.928,95.439,540.742,538.844,0.0
52857.0,STARLINK-4199,PAYLOAD,2024-04-02 21:26:08,15.08833339,0.000142,53.2175,312.5643,90.362,269.7535,-7.4954e-05,-1.48e-05,0.0,0 STARLINK-4199,1 52857U 22062AD  24093.89314884 -.00001480  00000-0 -74954-4 0  9990,2 52857  53.2175 312.5643 0001420  90.3620 269.7535 15.08833339 99865,6917.901,95.438,540.748,538.783,0.0
52857.0,STARLINK-4199,PAYLOAD,2024-04-03 14:55:20,15.08874749,0.0001352,53.2174,309.2931,76.4,283.7143,-0.0010309,-0.00016673,0.0,0 STARLINK-4199,1 52857U 22062AD  24094.62176631 -.00016673  00000-0 -10309-2 0  9990,2 52857  53.2174 309.2931 0001352  76.4000 283.7143 15.08874749 99487,6917.774,95.435,540.574,538.704,0.0
52857.0,STARLINK-4199,PAYLOAD,2024-04-03 21:16:53,15.08872351,0.0001654,53.2173,308.104,80.2476,279.8703,-0.0008265,-0.00013429,0.0,0 STARLINK-4199,1 52857U 22062AD  24094.88672505 -.00013429  00000-0 -82650-3 0  9994,2 52857  53.2173 308.1040 0001654  80.2476 279.8703 15.08872351100017,6917.782,95.436,540.791,538.502,0.0
52857.0,STARLINK-4199,PAYLOAD,2024-04-04 00:27:41,15.08839689,0.0001369,53.2172,307.5098,91.8871,268.2277,0.00041236,6.281e-05,0.0,0 STARLINK-4199,1 52857U 22062AD  24095.01923115  .00006281  00000-0  41236-3 0  9997,2 52857  53.2172 307.5098 0001369  91.8871 268.2277 15.08839689100039,6917.881,95.438,540.693,538.799,0.0
52857.0,STARLINK-4199,PAYLOAD,2024-04-04 06:49:14,15.08840338,0.0001345,53.2168,306.3206,91.7534,268.3612,0.00028936,4.32e-05,0.0,0 STARLINK-4199,1 52857U 22062AD  24095.28419156  .00004320  00000-0  28936-3 0  9995,2 52857  53.2168 306.3206 0001345  91.7534 268.3612 15.08840338 99585,6917.879,95.438,540.675,538.814,0.0
52857.0,STARLINK-4199,PAYLOAD,2024-04-04 21:07:42,15.08841649,0.0001332,53.2167,303.6449,94.6601,265.4543,0.0001497,2.095e-05,0.0,0 STARLINK-4199,1 52857U 22062AD  24095.88035122  .00002095  00000-0  14970-3 0  9998,2 52857  53.2167 303.6449 0001332  94.6601 265.4543 15.08841649 99673,6917.875,95.437,540.662,538.819,0.0
52857.0,STARLINK-4199,PAYLOAD,2024-04-05 22:33:52,15.08849916,0.0001323,53.2162,298.8867,93.7832,266.3312,0.00015827,2.233e-05,0.0,0 STARLINK-4199,1 52857U 22062AD  24096.94018549  .00002233  00000-0  15827-3 0  9996,2 52857  53.2162 298.8867 0001323  93.7832 266.3312 15.08849916 99830,6917.85,95.437,540.63,538.8,0.0
52857.0,STARLINK-4199,PAYLOAD,2024-04-06 12:52:20,15.08845244,0.0001337,53.2161,296.211,89.7488,270.3657,0.00013044,1.789e-05,0.0,0 STARLINK-4199,1 52857U 22062AD  24097.53634696  .00001789  00000-0  13044-3 0  9993,2 52857  53.2161 296.2110 0001337  89.7488 270.3657 15.08845244100413,6917.864,95.437,540.654,538.804,0.0
52857.0,STARLINK-4199,PAYLOAD,2024-04-06 22:24:39,15.08845387,0.0001345,53.2155,294.4251,91.4011,268.7136,0.00010242,1.343e-05,0.0,0 STARLINK-4199,1 52857U 22062AD  24097.93378622  .00001343  00000-0  10242-3 0  9994,2 52857  53.2155 294.4251 0001345  91.4011 268.7136 15.08845387 99983,6917.864,95.437,540.659,538.798,0.0
52857.0,STARLINK-4199,PAYLOAD,2024-04-07 19:04:40,15.08839315,0.0001346,53.2156,290.558,92.2498,267.8648,-6.045e-05,-1.25e-05,0.0,0 STARLINK-4199,1 52857U 22062AD  24098.79491041 -.00001250  00000-0 -60450-4 0  9996,2 52857  53.2156 290.5580 0001346  92.2498 267.8648 15.08839315100609,6917.882,95.438,540.679,538.816,0.0
52857.0,STARLINK-4199,PAYLOAD,2024-04-07 22:15:26,15.0883626,0.0001385,53.2153,289.963,93.1119,267.0031,9.0995e-05,1.16e-05,0.0,0 STARLINK-4199,1 52857U 22062AD  24098.92739221  .00001160  00000-0  90995-4 0  9991,2 52857  53.2153 289.9630 0001385  93.1119 267.0031 15.08836260100139,6917.892,95.438,540.715,538.799,0.0
52857.0,STARLINK-4199,PAYLOAD,2024-04-08 12:33:54,15.08843767,0.000138,53.2141,287.2866,92.7421,267.3729,8.8611e-05,1.123e-05,0.0,0 STARLINK-4199,1 52857U 22062AD  24099.52354812  .00001123  00000-0  88611-4 0  9998,2 52857  53.2141 287.2866 0001380  92.7421 267.3729 15.08843767100221,6917.869,95.437,540.689,538.779,0.0
